OBJECT_NAME,OBJECT_ID,EPOCH,MEAN_MOTION,ECCENTRICITY,INCLINATION,RA_OF_ASC_NODE,ARG_OF_PERICENTER,MEAN_ANOMALY,EPHEMERIS_TYPE,CLASSIFICATION_TYPE,NORAD_CAT_ID,ELEMENT_SET_NO,REV_AT_EPOCH,BSTAR,MEAN_MOTION_DOT,MEAN_MOTION_DDOT
DMSP 5D-3 F16 (USA 172),2003-048A,2026-07-12T13:40:28.540128,14.14484907,.00081268,98.9896,217.5652,77.6701,38.2985,0,U,28054,999,17307,-.202075E-6,-.46E-6,0
METEOSAT-9 (MSG-2),2005-049B,2026-07-12T05:10:24.568032,1.00270590,.0002045,9.4157,53.9162,356.7107,2.7516,0,U,28912,999,724,0,.118E-5,0
DMSP 5D-3 F17 (USA 191),2006-050A,2026-07-12T13:19:13.505952,14.14996094,.00098752,98.7386,199.6066,350.6218,9.4770,0,U,29522,999,1601,.18114308E-4,-.8E-7,0
FENGYUN 3A,2008-026A,2026-07-12T10:06:45.293184,14.19576112,.00097334,98.6887,133.7832,59.0166,301.1966,0,U,32958,999,93898,.25877397E-4,.11E-6,0
GOES 14,2009-033A,2026-07-12T12:05:58.104672,1.00099419,.00018731,1.7524,82.7281,40.3663,115.5381,0,U,35491,999,684,0,-.356E-5,0
DMSP 5D-3 F18 (USA 210),2009-057A,2026-07-12T14:22:09.224832,14.14910534,.00110715,98.9054,174.3146,172.7461,187.3874,0,U,35951,999,86318,.10365575E-3,.156E-5,0
EWS-G2 (GOES 15),2010-008A,2026-07-12T04:22:21.654048,1.00268209,.00052041,1.3436,82.5028,53.7849,282.7295,0,U,36411,999,5988,0,.23E-6,0
COMS 1,2010-032A,2026-07-12T09:57:37.507680,0.99168607,.00112508,4.8673,75.0515,14.7069,323.0598,0,U,36744,999,5133,0,-.249E-5,0
FENGYUN 3B,2010-059A,2026-07-12T15:19:57.016704,14.14848519,.00230876,98.9614,239.7595,113.5188,38.4725,0,U,37214,999,81102,.28433888E-3,.505E-5,0
SUOMI NPP,2011-061A,2026-07-12T13:47:17.792736,14.19522273,.00006376,98.7956,134.2779,230.4961,129.6159,0,U,37849,999,76204,.26528849E-4,.12E-6,0
METEOSAT-10 (MSG-3),2012-035B,2026-07-12T08:54:26.719776,1.00270222,.00010688,4.7288,60.8930,17.8349,345.2043,0,U,38552,999,5111,0,-.1E-6,0
METOP-B,2012-049A,2026-07-12T14:25:02.780832,14.21445919,.00010583,98.6491,244.5912,271.4446,88.6610,0,U,38771,999,71687,.42191766E-4,.49E-6,0
INSAT-3D,2013-038B,2026-07-12T12:24:59.567040,1.00269695,.00005056,1.9888,82.2217,85.1927,78.7606,0,U,39216,999,4733,0,-.34E-5,0
FENGYUN 3C,2013-052A,2026-07-12T13:21:55.639008,14.15760405,.00137854,98.4996,166.2690,314.0712,45.9327,0,U,39260,999,66215,.33155457E-4,.24E-6,0
METEOR-M 2,2014-037A,2026-07-12T13:21:07.490016,14.21469116,.00053115,98.5123,168.3978,335.5298,24.5627,0,U,40069,999,62292,.10320794E-3,.184E-5,0
HIMAWARI-8,2014-060A,2026-07-12T13:54:38.728224,1.00272311,.00010433,0.0198,312.5033,216.5809,110.7112,0,U,40267,999,4301,0,-.275E-5,0
FENGYUN 2G,2014-090A,2026-07-12T15:41:37.565664,1.00261182,.00043519,5.6993,72.5047,152.2095,40.5082,0,U,40367,999,4225,0,-.303E-5,0
METEOSAT-11 (MSG-4),2015-034A,2026-07-12T06:42:40.222944,1.00270950,.00022283,3.2622,70.9528,353.1168,336.0209,0,U,40732,999,746,0,.6E-6,0
ELEKTRO-L 2,2015-074A,2026-07-12T10:01:14.661120,1.00272262,.00009352,6.7537,70.2096,216.0693,139.8337,0,U,41105,999,3875,0,-.122E-5,0
SENTINEL-3A,2016-011A,2026-07-12T14:29:08.967264,14.26739303,.00013731,98.6238,260.6208,91.0630,269.0708,0,U,41335,999,54168,.34102547E-4,.39E-6,0
INSAT-3DR,2016-054A,2026-07-12T12:09:07.789824,1.00270834,.00106417,0.0628,88.7472,181.1238,276.8125,0,U,41752,999,3607,0,-.76E-6,0
HIMAWARI-9,2016-064A,2026-07-12T13:54:38.728224,1.00270009,.00021191,0.0305,60.5510,116.4180,102.9227,0,U,41836,999,3546,0,0,0
GOES 16,2016-071A,2026-07-12T12:07:02.604000,1.00270875,.00005233,0.3968,85.4960,99.3916,182.5790,0,U,41866,999,3535,0,-.9E-6,0
FENGYUN 4A,2016-077A,2026-07-12T15:48:36.895104,1.00269540,.00084764,2.3835,79.9957,159.3659,52.1102,0,U,41882,999,3518,0,-.359E-5,0
CYGFM05,2016-078A,2026-07-12T02:49:28.759872,15.57754796,.00065197,34.9566,95.3657,6.4855,353.5953,0,U,41884,999,53264,.22098579E-3,.16961E-3,0
CYGFM04,2016-078B,2026-07-12T00:11:51.666432,15.62937948,.00045927,34.9325,62.4944,48.1886,311.9231,0,U,41885,999,53288,.23212136E-3,.21763E-3,0
CYGFM02,2016-078C,2026-07-11T23:01:39.357984,15.66185448,.00053337,34.9407,56.6012,51.8258,308.2949,0,U,41886,999,53305,.24624823E-3,.26306E-3,0
CYGFM01,2016-078D,2026-07-12T02:17:08.539872,15.58468472,.00066093,34.9395,96.3657,0.1122,359.9603,0,U,41887,999,53259,.21606229E-3,.17038E-3,0
CYGFM08,2016-078E,2026-07-12T01:47:22.651872,15.61329763,.00066918,34.9432,75.4042,35.5507,324.5663,0,U,41888,999,53286,.22706594E-3,.19997E-3,0
CYGFM07,2016-078G,2026-07-12T00:46:13.141056,15.61436171,.00050227,34.9450,64.0074,48.6424,311.4733,0,U,41890,999,53288,.22382114E-3,.19782E-3,0
CYGFM03,2016-078H,2026-07-12T01:36:45.850176,15.61425276,.00050252,34.9404,65.7035,32.8807,327.2230,0,U,41891,999,53286,.22697784E-3,.20054E-3,0
