DMSP 5D-3 F16 (USA 172) 
1 28054U 03048A   26193.56977477 -.00000046  00000+0 -20208-6 0  9996
2 28054  98.9896 217.5652 0008126  77.6701  38.2985 14.14484907173078
METEOSAT-9 (MSG-2)      
1 28912U 05049B   26193.21556213  .00000118  00000+0  00000+0 0  9994
2 28912   9.4157  53.9162 0002045 356.7107   2.7516  1.00270590  7244
DMSP 5D-3 F17 (USA 191) 
1 29522U 06050A   26193.55501743 -.00000008  00000+0  18114-4 0  9999
2 29522  98.7386 199.6066 0009875 350.6218   9.4770 14.14996094 16016
FENGYUN 3A              
1 32958U 08026A   26193.42135756  .00000011  00000+0  25877-4 0  9991
2 32958  98.6887 133.7832 0009733  59.0166 301.1966 14.19576112938981
GOES 14                 
1 35491U 09033A   26193.50414473 -.00000356  00000+0  00000+0 0  9999
2 35491   1.7524  82.7281 0001873  40.3663 115.5381  1.00099419  6847
DMSP 5D-3 F18 (USA 210) 
1 35951U 09057A   26193.59871788  .00000156  00000+0  10366-3 0  9998
2 35951  98.9054 174.3146 0011071 172.7461 187.3874 14.14910534863180
EWS-G2 (GOES 15)        
1 36411U 10008A   26193.18219507  .00000023  00000+0  00000+0 0  9991
2 36411   1.3436  82.5028 0005204  53.7849 282.7295  1.00268209 59889
COMS 1                  
1 36744U 10032A   26193.41501745 -.00000249  00000+0  00000+0 0  9992
2 36744   4.8673  75.0515 0011250  14.7069 323.0598  0.99168607 51331
FENGYUN 3B              
1 37214U 10059A   26193.63885436  .00000505  00000+0  28434-3 0  9999
2 37214  98.9614 239.7595 0023087 113.5188  38.4725 14.14848519811029
SUOMI NPP               
1 37849U 11061A   26193.57451149  .00000012  00000+0  26529-4 0  9997
2 37849  98.7956 134.2779 0000637 230.4961 129.6159 14.19522273762049
METEOSAT-10 (MSG-3)     
1 38552U 12035B   26193.37114259 -.00000010  00000+0  00000+0 0  9997
2 38552   4.7288  60.8930 0001068  17.8349 345.2043  1.00270222 51112
METOP-B                 
1 38771U 12049A   26193.60072663  .00000049  00000+0  42192-4 0  9997
2 38771  98.6491 244.5912 0001058 271.4446  88.6610 14.21445919716872
INSAT-3D                
1 39216U 13038B   26193.51735610 -.00000340  00000+0  00000+0 0  9991
2 39216   1.9888  82.2217 0000505  85.1927  78.7606  1.00269695 47330
FENGYUN 3C              
1 39260U 13052A   26193.55689397  .00000024  00000+0  33155-4 0  9990
2 39260  98.4996 166.2690 0013785 314.0712  45.9327 14.15760405662152
METEOR-M 2              
1 40069U 14037A   26193.55633669  .00000184  00000+0  10321-3 0  9990
2 40069  98.5123 168.3978 0005311 335.5298  24.5627 14.21469116622928
HIMAWARI-8              
1 40267U 14060A   26193.57961491 -.00000275  00000+0  00000+0 0  9996
2 40267   0.0198 312.5033 0001043 216.5809 110.7112  1.00272311 43013
FENGYUN 2G              
1 40367U 14090A   26193.65390701 -.00000303  00000+0  00000+0 0  9991
2 40367   5.6993  72.5047 0004351 152.2095  40.5082  1.00261182 42259
METEOSAT-11 (MSG-4)     
1 40732U 15034A   26193.27963221  .00000060  00000+0  00000+0 0  9996
2 40732   3.2622  70.9528 0002228 353.1168 336.0209  1.00270950  7469
ELEKTRO-L 2             
1 41105U 15074A   26193.41753080 -.00000122  00000+0  00000+0 0  9991
2 41105   6.7537  70.2096 0000935 216.0693 139.8337  1.00272262 38758
SENTINEL-3A             
1 41335U 16011A   26193.60357601  .00000039  00000+0  34103-4 0  9990
2 41335  98.6238 260.6208 0001373  91.0630 269.0708 14.26739303541685
INSAT-3DR               
1 41752U 16054A   26193.50634016 -.00000076  00000+0  00000+0 0  9993
2 41752   0.0628  88.7472 0010641 181.1238 276.8125  1.00270834 36071
HIMAWARI-9              
1 41836U 16064A   26193.57961491  .00000000  00000+0  00000+0 0  9990
2 41836   0.0305  60.5510 0002119 116.4180 102.9227  1.00270009 35463
GOES 16                 
1 41866U 16071A   26193.50489125 -.00000090  00000+0  00000+0 0  9993
2 41866   0.3968  85.4960 0000523  99.3916 182.5790  1.00270875 35350
FENGYUN 4A              
1 41882U 16077A   26193.65876036 -.00000359  00000+0  00000+0 0  9992
2 41882   2.3835  79.9957 0008476 159.3659  52.1102  1.00269540 35180
CYGFM05                 
1 41884U 16078A   26193.11769398  .00016961  00000+0  22099-3 0  9999
2 41884  34.9566  95.3657 0006519   6.4855 353.5953 15.57754796532643
CYGFM04                 
1 41885U 16078B   26193.00823688  .00021763  00000+0  23212-3 0  9995
2 41885  34.9325  62.4944 0004592  48.1886 311.9231 15.62937948532888
CYGFM02                 
1 41886U 16078C   26192.95948331  .00026306  00000+0  24625-3 0  9999
2 41886  34.9407  56.6012 0005333  51.8258 308.2949 15.66185448533058
CYGFM01                 
1 41887U 16078D   26193.09523773  .00017038  00000+0  21606-3 0  9993
2 41887  34.9395  96.3657 0006609   0.1122 359.9603 15.58468472532595
CYGFM08                 
1 41888U 16078E   26193.07456773  .00019997  00000+0  22707-3 0  9996
2 41888  34.9432  75.4042 0006691  35.5507 324.5663 15.61329763532861
CYGFM07                 
1 41890U 16078G   26193.03209654  .00019782  00000+0  22382-3 0  9990
2 41890  34.9450  64.0074 0005022  48.6424 311.4733 15.61436171532880
CYGFM03                 
1 41891U 16078H   26193.06719734  .00020054  00000+0  22698-3 0  9993
2 41891  34.9404  65.7035 0005025  32.8807 327.2230 15.61425276532867
